[{"OBJECT_NAME":"LAPAN-A3","OBJECT_ID":"2016-040E","EPOCH":"2026-03-09T23:01:57.724896","MEAN_MOTION":15.3238951,"ECCENTRICITY":0.00109839,"INCLINATION":97.1488,"RA_OF_ASC_NODE":68.4254,"ARG_OF_PERICENTER":22.062,"MEAN_ANOMALY":338.1093,"EPHEMERIS_TYPE":0,"CLASSIFICATION_TYPE":"U","NORAD_CAT_ID":41603,"ELEMENT_SET_NO":999,"REV_AT_EPOCH":53961,"BSTAR":0.00017567445,"MEAN_MOTION_DOT":5.428e-5,"MEAN_MOTION_DDOT":0},{"OBJECT_NAME":"STARLINK-32409","OBJECT_ID":"2024-187T","EPOCH":"2026-03-09T22:55:20.411904","MEAN_MOTION":15.30201446,"ECCENTRICITY":0.00012699,"INCLINATION":53.1613,"RA_OF_ASC_NODE":48.9209,"ARG_OF_PERICENTER":75.3843,"MEAN_ANOMALY":284.7298,"EPHEMERIS_TYPE":0,"CLASSIFICATION_TYPE":"U","NORAD_CAT_ID":61591,"ELEMENT_SET_NO":999,"REV_AT_EPOCH":7933,"BSTAR":-3.2707094e-5,"MEAN_MOTION_DOT":-1.328e-5,"MEAN_MOTION_DDOT":0}]
